{
  "type": "FeatureCollection",
  "features": [
    {
      "type": "Feature",
      "properties": {
        "norad_id": 55973,
        "name": "TIANMU-1 03",
        "group": "weather",
        "lat": -20.31321095613082,
        "lon": 149.8013932439505,
        "alt_km": 448.88307267331675,
        "timestamp": "2025-12-10T09:57:44.348062+00:00",
        "meta_object_name": "TIANMU-1 03",
        "meta_object_id": "2023-039A",
        "meta_epoch": "2025-12-09T18:27:52.644384",
        "meta_mean_motion": 15.40785853,
        "meta_eccentricity": 0.00045,
        "meta_inclination": 97.5112,
        "meta_ra_of_asc_node": 146.3383,
        "meta_arg_of_pericenter": 69.2402,
        "meta_mean_anomaly": 290.9326,
        "meta_ephemeris_type": 0,
        "meta_classification_type": "U",
        "meta_norad_cat_id": 55973,
        "meta_element_set_no": 999,
        "meta_rev_at_epoch": 15160,
        "meta_bstar": 0.0005293,
        "meta_mean_motion_dot": 0.00021625,
        "meta_mean_motion_ddot": 0,
        "tle_line1": "1 55973U 23039A   25343.76935931  .00021625  00000+0  52930-3 0  9993",
        "tle_line2": "2 55973  97.5112 146.3383 0004500  69.2402 290.9326 15.40785853151606"
      },
      "geometry": {
        "type": "Point",
        "coordinates": [
          149.8013932439505,
          -20.31321095613082
        ]
      }
    },
    {
      "type": "Feature",
      "properties": {
        "norad_id": 55974,
        "name": "TIANMU-1 04",
        "group": "weather",
        "lat": 82.44094817676148,
        "lon": 49.60330669263873,
        "alt_km": 432.1318072318254,
        "timestamp": "2025-12-10T09:57:44.348073+00:00",
        "meta_object_name": "TIANMU-1 04",
        "meta_object_id": "2023-039B",
        "meta_epoch": "2025-12-09T21:06:12.523968",
        "meta_mean_motion": 15.41125771,
        "meta_eccentricity": 0.0005183,
        "meta_inclination": 97.5044,
        "meta_ra_of_asc_node": 145.6435,
        "meta_arg_of_pericenter": 64.4878,
        "meta_mean_anomaly": 295.6904,
        "meta_ephemeris_type": 0,
        "meta_classification_type": "U",
        "meta_norad_cat_id": 55974,
        "meta_element_set_no": 999,
        "meta_rev_at_epoch": 15162,
        "meta_bstar": 0.00054722,
        "meta_mean_motion_dot": 0.00022618,
        "meta_mean_motion_ddot": 0,
        "tle_line1": "1 55974U 23039B   25343.87931162  .00022618  00000+0  54722-3 0  9992",
        "tle_line2": "2 55974  97.5044 145.6435 0005183  64.4878 295.6904 15.41125771151627"
      },
      "geometry": {
        "type": "Point",
        "coordinates": [
          49.60330669263873,
          82.44094817676148
        ]
      }
    },
    {
      "type": "Feature",
      "properties": {
        "norad_id": 55975,
        "name": "TIANMU-1 05",
        "group": "weather",
        "lat": 53.33342684503631,
        "lon": -23.10817030172971,
        "alt_km": 436.6600857049607,
        "timestamp": "2025-12-10T09:57:44.348083+00:00",
        "meta_object_name": "TIANMU-1 05",
        "meta_object_id": "2023-039C",
        "meta_epoch": "2025-12-09T19:23:23.400672",
        "meta_mean_motion": 15.40746227,
        "meta_eccentricity": 0.0004372,
        "meta_inclination": 97.5091,
        "meta_ra_of_asc_node": 146.0624,
        "meta_arg_of_pericenter": 85.7688,
        "meta_mean_anomaly": 274.4057,
        "meta_ephemeris_type": 0,
        "meta_classification_type": "U",
        "meta_norad_cat_id": 55975,
        "meta_element_set_no": 999,
        "meta_rev_at_epoch": 15159,
        "meta_bstar": 0.00054774,
        "meta_mean_motion_dot": 0.00022354,
        "meta_mean_motion_ddot": 0,
        "tle_line1": "1 55975U 23039C   25343.80790973  .00022354  00000+0  54774-3 0  9993",
        "tle_line2": "2 55975  97.5091 146.0624 0004372  85.7688 274.4057 15.40746227151593"
      },
      "geometry": {
        "type": "Point",
        "coordinates": [
          -23.10817030172971,
          53.33342684503631
        ]
      }
    },
    {
      "type": "Feature",
      "properties": {
        "norad_id": 55976,
        "name": "TIANMU-1 06",
        "group": "weather",
        "lat": 76.1369672731291,
        "lon": 114.83481774618782,
        "alt_km": 432.1597380028834,
        "timestamp": "2025-12-10T09:57:44.348094+00:00",
        "meta_object_name": "TIANMU-1 06",
        "meta_object_id": "2023-039D",
        "meta_epoch": "2025-12-09T21:09:28.785888",
        "meta_mean_motion": 15.4117804,
        "meta_eccentricity": 0.0004711,
        "meta_inclination": 97.5101,
        "meta_ra_of_asc_node": 146.6008,
        "meta_arg_of_pericenter": 81.2484,
        "meta_mean_anomaly": 278.9296,
        "meta_ephemeris_type": 0,
        "meta_classification_type": "U",
        "meta_norad_cat_id": 55976,
        "meta_element_set_no": 999,
        "meta_rev_at_epoch": 15162,
        "meta_bstar": 0.00054222,
        "meta_mean_motion_dot": 0.00022447,
        "meta_mean_motion_ddot": 0,
        "tle_line1": "1 55976U 23039D   25343.88158317  .00022447  00000+0  54222-3 0  9993",
        "tle_line2": "2 55976  97.5101 146.6008 0004711  81.2484 278.9296 15.41178040151621"
      },
      "geometry": {
        "type": "Point",
        "coordinates": [
          114.83481774618782,
          76.1369672731291
        ]
      }
    },
    {
      "type": "Feature",
      "properties": {
        "norad_id": 56232,
        "name": "FENGYUN 3G",
        "group": "weather",
        "lat": 26.854563794732407,
        "lon": -95.38390701611694,
        "alt_km": 404.4653768057251,
        "timestamp": "2025-12-10T09:57:44.348106+00:00",
        "meta_object_name": "FENGYUN 3G",
        "meta_object_id": "2023-055A",
        "meta_epoch": "2025-12-09T19:54:46.304640",
        "meta_mean_motion": 15.53371996,
        "meta_eccentricity": 0.0009301,
        "meta_inclination": 49.9932,
        "meta_ra_of_asc_node": 242.4697,
        "meta_arg_of_pericenter": 134.6935,
        "meta_mean_anomaly": 225.4791,
        "meta_ephemeris_type": 0,
        "meta_classification_type": "U",
        "meta_norad_cat_id": 56232,
        "meta_element_set_no": 999,
        "meta_rev_at_epoch": 15057,
        "meta_bstar": 0.00064589,
        "meta_mean_motion_dot": 0.00041469,
        "meta_mean_motion_ddot": 0,
        "tle_line1": "1 56232U 23055A   25343.82970260  .00041469  00000+0  64589-3 0  9992",
        "tle_line2": "2 56232  49.9932 242.4697 0009301 134.6935 225.4791 15.53371996150571"
      },
      "geometry": {
        "type": "Point",
        "coordinates": [
          -95.38390701611694,
          26.854563794732407
        ]
      }
    },
    {
      "type": "Feature",
      "properties": {
        "norad_id": 57166,
        "name": "METEOR-M2 3",
        "group": "weather",
        "lat": -36.34898518308839,
        "lon": -148.42790283705125,
        "alt_km": 820.76782248573,
        "timestamp": "2025-12-10T09:57:44.348117+00:00",
        "meta_object_name": "METEOR-M2 3",
        "meta_object_id": "2023-091A",
        "meta_epoch": "2025-12-10T03:53:19.183776",
        "meta_mean_motion": 14.24025665,
        "meta_eccentricity": 0.0004055,
        "meta_inclination": 98.6381,
        "meta_ra_of_asc_node": 37.7463,
        "meta_arg_of_pericenter": 16.0228,
        "meta_mean_anomaly": 344.1078,
        "meta_ephemeris_type": 0,
        "meta_classification_type": "U",
        "meta_norad_cat_id": 57166,
        "meta_element_set_no": 999,
        "meta_rev_at_epoch": 12761,
        "meta_bstar": 4.0525e-05,
        "meta_mean_motion_dot": 5e-07,
        "meta_mean_motion_ddot": 0,
        "tle_line1": "1 57166U 23091A   25344.16202759  .00000050  00000+0  40525-4 0  9994",
        "tle_line2": "2 57166  98.6381  37.7463 0004055  16.0228 344.1078 14.24025665127614"
      },
      "geometry": {
        "type": "Point",
        "coordinates": [
          -148.42790283705125,
          -36.34898518308839
        ]
      }
    },
    {
      "type": "Feature",
      "properties": {
        "norad_id": 57399,
        "name": "TIANMU-1 07",
        "group": "weather",
        "lat": -73.19854226138513,
        "lon": -170.7609243606012,
        "alt_km": 492.8563360486114,
        "timestamp": "2025-12-10T09:57:44.348127+00:00",
        "meta_object_name": "TIANMU-1 07",
        "meta_object_id": "2023-101A",
        "meta_epoch": "2025-12-09T20:16:38.629056",
        "meta_mean_motion": 15.28005317,
        "meta_eccentricity": 0.0005641,
        "meta_inclination": 97.2877,
        "meta_ra_of_asc_node": 33.7583,
        "meta_arg_of_pericenter": 88.7609,
        "meta_mean_anomaly": 271.4277,
        "meta_ephemeris_type": 0,
        "meta_classification_type": "U",
        "meta_norad_cat_id": 57399,
        "meta_element_set_no": 999,
        "meta_rev_at_epoch": 13271,
        "meta_bstar": 0.00042294,
        "meta_mean_motion_dot": 0.00011493,
        "meta_mean_motion_ddot": 0,
        "tle_line1": "1 57399U 23101A   25343.84489154  .00011493  00000+0  42294-3 0  9991",
        "tle_line2": "2 57399  97.2877  33.7583 0005641  88.7609 271.4277 15.28005317132714"
      },
      "geometry": {
        "type": "Point",
        "coordinates": [
          -170.7609243606012,
          -73.19854226138513
        ]
      }
    }
  ]
}